NORAD_CAT_ID,OBJECT_NAME,OBJECT_TYPE,EPOCH,MEAN_MOTION,ECCENTRICITY,INCLINATION,RA_OF_ASC_NODE,ARG_OF_PERICENTER,MEAN_ANOMALY,BSTAR,MEAN_MOTION_DOT,MEAN_MOTION_DDOT,TLE_LINE0,TLE_LINE1,TLE_LINE2,SEMIMAJOR_AXIS,PERIOD,APOGEE,PERIGEE,DECAYED
53819.0,STARLINK-4738,PAYLOAD,2023-01-21 10:01:52,15.08850911,0.0001633,53.2198,36.64,103.8822,256.2352,-5.439e-05,-1.154e-05,0.0,0 STARLINK-4738,1 53819U 22114B   23021.41797039 -.00001154  00000-0 -54390-4 0  9992,2 53819  53.2198  36.6400 0001633 103.8822 256.2352 15.08850911 19690,6917.847,95.437,540.842,538.582,0.0
53819.0,STARLINK-4738,PAYLOAD,2023-01-22 06:41:53,15.08834938,0.0001631,53.2201,32.7737,114.8729,245.2433,0.00020158,2.921e-05,0.0,0 STARLINK-4738,1 53819U 22114B   23022.27909668  .00002921  00000-0  20158-3 0  9995,2 53819  53.2201  32.7737 0001631 114.8729 245.2433 15.08834938 19825,6917.896,95.438,540.889,538.633,0.0
53819.0,STARLINK-4738,PAYLOAD,2023-01-22 09:52:39,15.08843882,0.0001541,53.2194,32.1798,113.0802,247.0352,0.00017857,2.555e-05,0.0,0 STARLINK-4738,1 53819U 22114B   23022.41157141  .00002555  00000-0  17857-3 0  9997,2 53819  53.2194  32.1798 0001541 113.0802 247.0352 15.08843882 19840,6917.869000000001,95.437,540.8,538.6669999999999,0.0
53819.0,STARLINK-4738,PAYLOAD,2023-01-22 17:49:36,15.08833622,0.0001567,53.2199,30.6936,102.6054,257.5114,7.7458e-05,9.45e-06,0.0,0 STARLINK-4738,1 53819U 22114B   23022.74278206  .00000945  00000-0  77458-4 0  9994,2 53819  53.2199  30.6936 0001567 102.6054 257.5114 15.08833622 19891,6917.9,95.438,540.849,538.681,0.0
53819.0,STARLINK-4738,PAYLOAD,2023-01-24 06:23:28,15.08849525,0.000149,53.2197,23.8521,104.3529,255.7629,7.9981e-05,9.85e-06,0.0,0 STARLINK-4738,1 53819U 22114B   23024.26629726  .00000985  00000-0  79981-4 0  9997,2 53819  53.2197  23.8521 0001490 104.3529 255.7629 15.08849525 20122,6917.851,95.437,540.747,538.686,0.0
53819.0,STARLINK-4738,PAYLOAD,2023-01-25 06:14:15,15.08841135,0.0001402,53.2185,19.3913,105.6857,254.429,0.00017372,2.478e-05,0.0,0 STARLINK-4738,1 53819U 22114B   23025.25990169  .00002478  00000-0  17372-3 0  9993,2 53819  53.2185  19.3913 0001402 105.6857 254.4290 15.08841135 20270,6917.877,95.437,540.712,538.7719999999999,0.0
53819.0,STARLINK-4738,PAYLOAD,2023-01-25 09:25:01,15.08847992,0.0001255,53.2189,18.7964,99.3961,260.7173,0.0001646,2.333e-05,0.0,0 STARLINK-4738,1 53819U 22114B   23025.39237726  .00002333  00000-0  16460-3 0  9998,2 53819  53.2189  18.7964 0001255  99.3961 260.7173 15.08847992 20833,6917.856,95.437,540.589,538.8530000000001,0.0
53819.0,STARLINK-4738,PAYLOAD,2023-01-26 02:54:15,15.0884783,0.0001821,53.2194,15.5206,128.4239,231.6916,7.2535e-05,8.67e-06,0.0,0 STARLINK-4738,1 53819U 22114B   23026.12101802  .00000867  00000-0  72535-4 0  9991,2 53819  53.2194  15.5206 0001821 128.4239 231.6916 15.08847830 20400,6917.856,95.437,540.981,538.462,0.0
53819.0,STARLINK-4738,PAYLOAD,2023-01-26 23:34:17,15.08840756,0.0001239,53.2193,11.6594,81.973,278.1403,-4.7849e-06,-3.64e-06,0.0,0 STARLINK-4738,1 53819U 22114B   23026.98214186 -.00000364  00000-0 -47849-5 0  9990,2 53819  53.2193  11.6594 0001239  81.9730 278.1403 15.08840756 20539,6917.878000000001,95.438,540.6,538.886,0.0
53819.0,STARLINK-4738,PAYLOAD,2023-01-27 09:06:35,15.08842513,0.0001238,53.2193,9.8772,83.69200000000001,276.4213,1.7266e-05,-1.3e-07,0.0,0 STARLINK-4738,1 53819U 22114B   23027.37958055 -.00000013  00000-0  17266-4 0  9993,2 53819  53.2193   9.8772 0001238  83.6920 276.4213 15.08842513 21135,6917.8730000000005,95.437,540.594,538.881,0.0
53819.0,STARLINK-4738,PAYLOAD,2023-01-28 04:11:13,15.08840496,0.0001147,53.2202,6.3088,85.9551,274.1572,4.1813e-05,3.78e-06,0.0,0 STARLINK-4738,1 53819U 22114B   23028.17446730  .00000378  00000-0  41813-4 0  9992,2 53819  53.2202   6.3088 0001147  85.9551 274.1572 15.08840496 20716,6917.879,95.438,540.5369999999999,538.95,0.0
53819.0,STARLINK-4738,PAYLOAD,2023-01-28 07:21:59,15.08841874,0.0001175,53.2193,5.7149,87.9096,272.203,6.638e-05,7.69e-06,0.0,0 STARLINK-4738,1 53819U 22114B   23028.30694400  .00000769  00000-0  66380-4 0  9996,2 53819  53.2193   5.7149 0001175  87.9096 272.2030 15.08841874 21274,6917.875,95.437,540.553,538.927,0.0
53819.0,STARLINK-4738,PAYLOAD,2023-01-28 20:05:05,15.08838454,0.0001117,53.2194,3.3355,92.2684,267.8436,8.6978e-05,1.097e-05,0.0,0 STARLINK-4738,1 53819U 22114B   23028.83686615  .00001097  00000-0  86978-4 0  9993,2 53819  53.2194   3.3355 0001117  92.2684 267.8436 15.08838454 21355,6917.885,95.438,540.523,538.977,0.0
53819.0,STARLINK-4738,PAYLOAD,2023-01-29 07:12:46,15.08852825,0.0001058,53.2191,1.2539,101.0236,259.0876,0.0004229,6.451e-05,0.0,0 STARLINK-4738,1 53819U 22114B   23029.30054124  .00006451  00000-0  42290-3 0  9997,2 53819  53.2191   1.2539 0001058 101.0236 259.0876 15.08852825 20885,6917.841,95.437,540.438,538.974,0.0
53819.0,STARLINK-4738,PAYLOAD,2023-01-29 19:55:52,15.08841012,0.0001033,53.2187,358.8764,96.0342,264.0767,0.00012355,1.679e-05,0.0,0 STARLINK-4738,1 53819U 22114B   23029.83046514  .00001679  00000-0  12355-3 0  9995,2 53819  53.2187 358.8764 0001033  96.0342 264.0767 15.08841012 20965,6917.877,95.437,540.457,539.028,0.0
53819.0,STARLINK-4738,PAYLOAD,2023-01-29 21:31:15,15.08840323,0.0001046,53.2187,358.5794,88.7937,271.3175,6.4384e-05,7.37e-06,0.0,0 STARLINK-4738,1 53819U 22114B   23029.89670532  .00000737  00000-0  64384-4 0  9998,2 53819  53.2187 358.5794 0001046  88.7937 271.3175 15.08840323 21517,6917.879,95.438,540.468,539.021,0.0
53819.0,STARLINK-4738,PAYLOAD,2023-01-30 05:28:10,15.08847293,0.0001091,53.2193,357.0921,93.0271,267.0846,0.00016535,2.345e-05,0.0,0 STARLINK-4738,1 53819U 22114B   23030.22790234  .00002345  00000-0  16535-3 0  9990,2 53819  53.2193 357.0921 0001091  93.0271 267.0846 15.08847293 21565,6917.858,95.437,540.478,538.968,0.0
53819.0,STARLINK-4738,PAYLOAD,2023-01-30 21:22:02,15.08842111,0.0001068,53.2196,354.1185,93.2206,266.8909,0.00011304,1.512e-05,0.0,0 STARLINK-4738,1 53819U 22114B   23030.89030449  .00001512  00000-0  11304-3 0  9992,2 53819  53.2196 354.1185 0001068  93.2206 266.8909 15.08842111 21664,6917.874,95.437,540.478,539.0,0.0
53819.0,STARLINK-4738,PAYLOAD,2023-01-30 22:57:25,15.08843788,0.0001107,53.2196,353.8211,93.9458,266.1661,0.00013372,1.841e-05,0.0,0 STARLINK-4738,1 53819U 22114B   23030.95654362  .00001841  00000-0  13372-3 0  9997,2 53819  53.2196 353.8211 0001107  93.9458 266.1661 15.08843788 21131,6917.869,95.437,540.5,538.968,0.0
53819.0,STARLINK-4738,PAYLOAD,2023-01-31 03:43:34,15.08845315,0.0001372,53.2196,352.9292,111.0279,249.0859,0.00010946,1.455e-05,0.0,0 STARLINK-4738,1 53819U 22114B   23031.15526224  .00001455  00000-0  10946-3 0  9990,2 53819  53.2196 352.9292 0001372 111.0279 249.0859 15.08845315 21707,6917.864,95.437,540.678,538.78,0.0
53819.0,STARLINK-4738,PAYLOAD,2023-01-31 21:12:49,15.08844213,0.0001207,53.2195,349.6586,97.1485,262.9645,0.00014964,2.095e-05,0.0,0 STARLINK-4738,1 53819U 22114B   23031.88390185  .00002095  00000-0  14964-3 0  9990,2 53819  53.2195 349.6586 0001207  97.1485 262.9645 15.08844213 21810,6917.868,95.437,540.567,538.898,0.0
53819.0,STARLINK-4738,PAYLOAD,2023-02-01 03:34:21,15.08850117,0.0001257,53.2195,348.4688,104.9428,255.1703,0.00022697,3.327e-05,0.0,0 STARLINK-4738,1 53819U 22114B   23032.14885790  .00003327  00000-0  22697-3 0  9992,2 53819  53.2195 348.4688 0001257 104.9428 255.1703 15.08850117 21313,6917.849,95.437,540.584,538.845,0.0
53819.0,STARLINK-4738,PAYLOAD,2023-02-01 06:45:07,15.08853277,0.0001256,53.2194,347.8739,106.5337,253.5794,0.00023032,3.381e-05,0.0,0 STARLINK-4738,1 53819U 22114B   23032.28133538  .00003381  00000-0  23032-3 0  9997,2 53819  53.2194 347.8739 0001256 106.5337 253.5794 15.08853277 21871,6917.84,95.437,540.574,538.836,0.0
53819.0,STARLINK-4738,PAYLOAD,2023-02-02 03:25:09,15.08834671,0.0001228,53.2195,344.0089,88.9344,271.1788,7.025e-06,-1.76e-06,0.0,0 STARLINK-4738,1 53819U 22114B   23033.14246802 -.00000176  00000-0  70250-5 0  9998,2 53819  53.2195 344.0089 0001228  88.9344 271.1788 15.08834671 21460,6917.897,95.438,540.611,538.912,0.0
53819.0,STARLINK-4738,PAYLOAD,2023-02-02 06:35:55,15.08839868,0.0001293,53.2195,343.4139,88.055,272.059,9.9889e-05,1.302e-05,0.0,0 STARLINK-4738,1 53819U 22114B   23033.27494584  .00001302  00000-0  99889-4 0  9993,2 53819  53.2195 343.4139 0001293  88.0550 272.0590 15.08839868 22028,6917.881,95.438,540.64,538.851,0.0
53819.0,STARLINK-4738,PAYLOAD,2023-02-02 22:29:46,15.08848513,0.00013,53.2196,340.4409,89.3774,270.7367,0.00033031,4.974e-05,0.0,0 STARLINK-4738,1 53819U 22114B   23033.93734388  .00004974  00000-0  33031-3 0  9999,2 53819  53.2196 340.4409 0001300  89.3774 270.7367 15.08848513 21581,6917.854,95.437,540.619,538.82,0.0
53819.0,STARLINK-4738,PAYLOAD,2023-02-03 03:15:55,15.08860878,0.0001297,53.2198,339.5492,84.6655,275.4485,0.00092129,0.00014413,0.0,0 STARLINK-4738,1 53819U 22114B   23034.13606289  .00014413  00000-0  92129-3 0  9992,2 53819  53.2198 339.5492 0001297  84.6655 275.4485 15.08860878 21610,6917.817,95.436,540.579,538.784,0.0
53819.0,STARLINK-4738,PAYLOAD,2023-02-03 19:09:47,15.08848289,0.0001386,53.2199,336.5755,81.4314,278.6835,0.00031904,4.794e-05,0.0,0 STARLINK-4738,1 53819U 22114B   23034.79846432  .00004794  00000-0  31904-3 0  9995,2 53819  53.2199 336.5755 0001386  81.4314 278.6835 15.08848289 21713,6917.855,95.437,540.679,538.761,0.0
53819.0,STARLINK-4738,PAYLOAD,2023-02-04 04:42:06,15.08853539,0.0001289,53.2197,334.7921,92.9714,267.1426,0.00070309,0.00010924,0.0,0 STARLINK-4738,1 53819U 22114B   23035.19590333  .00010924  00000-0  70309-3 0  9990,2 53819  53.2197 334.7921 0001289  92.9714 267.1426 15.08853539 22319,6917.839,95.437,540.596,538.812,0.0
53819.0,STARLINK-4738,PAYLOAD,2023-02-04 20:35:57,15.08840354,0.0001341,53.2192,331.8181,100.2183,259.896,0.00082056,0.00012795,0.0,0 STARLINK-4738,1 53819U 22114B   23035.85830834  .00012795  00000-0  82056-3 0  9996,2 53819  53.2192 331.8181 0001341 100.2183 259.8960 15.08840354 21874,6917.879,95.438,540.672,538.817,0.0
